<?xml version="1.0" encoding="UTF-8"?>
<ndm xmlns:xsi="http://www.w3.org/2001/XMLSchema-instance" xsi:noNamespaceSchemaLocation="https://sanaregistry.org/r/ndmxml_unqualified/ndmxml-2.0.0-master-2.0.xsd">
<omm id="CCSDS_OMM_VERS" version="2.0">
<header><CREATION_DATE/><ORIGINATOR/></header><body><segment><metadata><OBJECT_NAME>KUIPER-00104</OBJECT_NAME><OBJECT_ID>2025-171L</OBJECT_ID><CENTER_NAME>EARTH</CENTER_NAME><REF_FRAME>TEME</REF_FRAME><TIME_SYSTEM>UTC</TIME_SYSTEM><MEAN_ELEMENT_THEORY>SGP4</MEAN_ELEMENT_THEORY></metadata><data><meanElements><EPOCH>2025-12-10T16:00:01.999584</EPOCH><MEAN_MOTION>14.82100263</MEAN_MOTION><ECCENTRICITY>.00035287</ECCENTRICITY><INCLINATION>51.8996</INCLINATION><RA_OF_ASC_NODE>190.6727</RA_OF_ASC_NODE><ARG_OF_PERICENTER>226.8240</ARG_OF_PERICENTER><MEAN_ANOMALY>75.4572</MEAN_ANOMALY></meanElements><tleParameters><EPHEMERIS_TYPE>0</EPHEMERIS_TYPE><CLASSIFICATION_TYPE>U</CLASSIFICATION_TYPE><NORAD_CAT_ID>65142</NORAD_CAT_ID><ELEMENT_SET_NO>999</ELEMENT_SET_NO><REV_AT_EPOCH>531</REV_AT_EPOCH><BSTAR>-.19526034E-2</BSTAR><MEAN_MOTION_DOT>-.15868E-3</MEAN_MOTION_DOT><MEAN_MOTION_DDOT>0</MEAN_MOTION_DDOT></tleParameters></data></segment></body></omm>
<omm id="CCSDS_OMM_VERS" version="2.0">
<header><CREATION_DATE/><ORIGINATOR/></header><body><segment><metadata><OBJECT_NAME>KUIPER-00105</OBJECT_NAME><OBJECT_ID>2025-171M</OBJECT_ID><CENTER_NAME>EARTH</CENTER_NAME><REF_FRAME>TEME</REF_FRAME><TIME_SYSTEM>UTC</TIME_SYSTEM><MEAN_ELEMENT_THEORY>SGP4</MEAN_ELEMENT_THEORY></metadata><data><meanElements><EPOCH>2025-12-10T14:20:10.951872</EPOCH><MEAN_MOTION>14.79950945</MEAN_MOTION><ECCENTRICITY>.00133954</ECCENTRICITY><INCLINATION>51.8984</INCLINATION><RA_OF_ASC_NODE>199.6163</RA_OF_ASC_NODE><ARG_OF_PERICENTER>166.1137</ARG_OF_PERICENTER><MEAN_ANOMALY>194.0196</MEAN_ANOMALY></meanElements><tleParameters><EPHEMERIS_TYPE>0</EPHEMERIS_TYPE><CLASSIFICATION_TYPE>U</CLASSIFICATION_TYPE><NORAD_CAT_ID>65143</NORAD_CAT_ID><ELEMENT_SET_NO>999</ELEMENT_SET_NO><REV_AT_EPOCH>1959</REV_AT_EPOCH><BSTAR>.65292985E-3</BSTAR><MEAN_MOTION_DOT>.4766E-4</MEAN_MOTION_DOT><MEAN_MOTION_DDOT>0</MEAN_MOTION_DDOT></tleParameters></data></segment></body></omm>
<omm id="CCSDS_OMM_VERS" version="2.0">
<header><CREATION_DATE/><ORIGINATOR/></header><body><segment><metadata><OBJECT_NAME>KUIPER-00106</OBJECT_NAME><OBJECT_ID>2025-171N</OBJECT_ID><CENTER_NAME>EARTH</CENTER_NAME><REF_FRAME>TEME</REF_FRAME><TIME_SYSTEM>UTC</TIME_SYSTEM><MEAN_ELEMENT_THEORY>SGP4</MEAN_ELEMENT_THEORY></metadata><data><meanElements><EPOCH>2025-12-10T13:59:23.891424</EPOCH><MEAN_MOTION>14.96492140</MEAN_MOTION><ECCENTRICITY>.00096563</ECCENTRICITY><INCLINATION>51.8912</INCLINATION><RA_OF_ASC_NODE>199.7011</RA_OF_ASC_NODE><ARG_OF_PERICENTER>160.6745</ARG_OF_PERICENTER><MEAN_ANOMALY>199.4592</MEAN_ANOMALY></meanElements><tleParameters><EPHEMERIS_TYPE>0</EPHEMERIS_TYPE><CLASSIFICATION_TYPE>U</CLASSIFICATION_TYPE><NORAD_CAT_ID>65144</NORAD_CAT_ID><ELEMENT_SET_NO>999</ELEMENT_SET_NO><REV_AT_EPOCH>1959</REV_AT_EPOCH><BSTAR>.7118605E-3</BSTAR><MEAN_MOTION_DOT>.7929E-4</MEAN_MOTION_DOT><MEAN_MOTION_DDOT>0</MEAN_MOTION_DDOT></tleParameters></data></segment></body></omm>
<omm id="CCSDS_OMM_VERS" version="2.0">
<header><CREATION_DATE/><ORIGINATOR/></header><body><segment><metadata><OBJECT_NAME>KUIPER-00107</OBJECT_NAME><OBJECT_ID>2025-171P</OBJECT_ID><CENTER_NAME>EARTH</CENTER_NAME><REF_FRAME>TEME</REF_FRAME><TIME_SYSTEM>UTC</TIME_SYSTEM><MEAN_ELEMENT_THEORY>SGP4</MEAN_ELEMENT_THEORY></metadata><data><meanElements><EPOCH>2025-12-10T16:00:01.999584</EPOCH><MEAN_MOTION>15.05307387</MEAN_MOTION><ECCENTRICITY>.0006969</ECCENTRICITY><INCLINATION>51.8864</INCLINATION><RA_OF_ASC_NODE>183.4855</RA_OF_ASC_NODE><ARG_OF_PERICENTER>218.5351</ARG_OF_PERICENTER><MEAN_ANOMALY>264.9445</MEAN_ANOMALY></meanElements><tleParameters><EPHEMERIS_TYPE>0</EPHEMERIS_TYPE><CLASSIFICATION_TYPE>U</CLASSIFICATION_TYPE><NORAD_CAT_ID>65145</NORAD_CAT_ID><ELEMENT_SET_NO>999</ELEMENT_SET_NO><REV_AT_EPOCH>516</REV_AT_EPOCH><BSTAR>-.53119517E-3</BSTAR><MEAN_MOTION_DOT>-.7965E-4</MEAN_MOTION_DOT><MEAN_MOTION_DDOT>0</MEAN_MOTION_DDOT></tleParameters></data></segment></body></omm>
<omm id="CCSDS_OMM_VERS" version="2.0">
<header><CREATION_DATE/><ORIGINATOR/></header><body><segment><metadata><OBJECT_NAME>KUIPER-00108</OBJECT_NAME><OBJECT_ID>2025-171Q</OBJECT_ID><CENTER_NAME>EARTH</CENTER_NAME><REF_FRAME>TEME</REF_FRAME><TIME_SYSTEM>UTC</TIME_SYSTEM><MEAN_ELEMENT_THEORY>SGP4</MEAN_ELEMENT_THEORY></metadata><data><meanElements><EPOCH>2025-12-10T07:10:22.176192</EPOCH><MEAN_MOTION>14.79891207</MEAN_MOTION><ECCENTRICITY>.00087791</ECCENTRICITY><INCLINATION>51.9023</INCLINATION><RA_OF_ASC_NODE>195.8746</RA_OF_ASC_NODE><ARG_OF_PERICENTER>173.9707</ARG_OF_PERICENTER><MEAN_ANOMALY>186.1363</MEAN_ANOMALY></meanElements><tleParameters><EPHEMERIS_TYPE>0</EPHEMERIS_TYPE><CLASSIFICATION_TYPE>U</CLASSIFICATION_TYPE><NORAD_CAT_ID>65146</NORAD_CAT_ID><ELEMENT_SET_NO>999</ELEMENT_SET_NO><REV_AT_EPOCH>1962</REV_AT_EPOCH><BSTAR>-.12705184E-2</BSTAR><MEAN_MOTION_DOT>-.9891E-4</MEAN_MOTION_DOT><MEAN_MOTION_DDOT>0</MEAN_MOTION_DDOT></tleParameters></data></segment></body></omm>
<omm id="CCSDS_OMM_VERS" version="2.0">
<header><CREATION_DATE/><ORIGINATOR/></header><body><segment><metadata><OBJECT_NAME>KUIPER-00109</OBJECT_NAME><OBJECT_ID>2025-171R</OBJECT_ID><CENTER_NAME>EARTH</CENTER_NAME><REF_FRAME>TEME</REF_FRAME><TIME_SYSTEM>UTC</TIME_SYSTEM><MEAN_ELEMENT_THEORY>SGP4</MEAN_ELEMENT_THEORY></metadata><data><meanElements><EPOCH>2025-12-10T16:00:01.999584</EPOCH><MEAN_MOTION>14.81192104</MEAN_MOTION><ECCENTRICITY>.00120796</ECCENTRICITY><INCLINATION>51.8996</INCLINATION><RA_OF_ASC_NODE>189.1951</RA_OF_ASC_NODE><ARG_OF_PERICENTER>186.7231</ARG_OF_PERICENTER><MEAN_ANOMALY>119.3329</MEAN_ANOMALY></meanElements><tleParameters><EPHEMERIS_TYPE>0</EPHEMERIS_TYPE><CLASSIFICATION_TYPE>U</CLASSIFICATION_TYPE><NORAD_CAT_ID>65147</NORAD_CAT_ID><ELEMENT_SET_NO>999</ELEMENT_SET_NO><REV_AT_EPOCH>555</REV_AT_EPOCH><BSTAR>-.20210993E-2</BSTAR><MEAN_MOTION_DOT>-.16087E-3</MEAN_MOTION_DOT><MEAN_MOTION_DDOT>0</MEAN_MOTION_DDOT></tleParameters></data></segment></body></omm>
<omm id="CCSDS_OMM_VERS" version="2.0">
<header><CREATION_DATE/><ORIGINATOR/></header><body><segment><metadata><OBJECT_NAME>KUIPER-00110</OBJECT_NAME><OBJECT_ID>2025-171S</OBJECT_ID><CENTER_NAME>EARTH</CENTER_NAME><REF_FRAME>TEME</REF_FRAME><TIME_SYSTEM>UTC</TIME_SYSTEM><MEAN_ELEMENT_THEORY>SGP4</MEAN_ELEMENT_THEORY></metadata><data><meanElements><EPOCH>2025-12-10T08:24:25.241760</EPOCH><MEAN_MOTION>14.76943317</MEAN_MOTION><ECCENTRICITY>.00113801</ECCENTRICITY><INCLINATION>51.8967</INCLINATION><RA_OF_ASC_NODE>203.1152</RA_OF_ASC_NODE><ARG_OF_PERICENTER>168.9027</ARG_OF_PERICENTER><MEAN_ANOMALY>191.2187</MEAN_ANOMALY></meanElements><tleParameters><EPHEMERIS_TYPE>0</EPHEMERIS_TYPE><CLASSIFICATION_TYPE>U</CLASSIFICATION_TYPE><NORAD_CAT_ID>65148</NORAD_CAT_ID><ELEMENT_SET_NO>999</ELEMENT_SET_NO><REV_AT_EPOCH>1951</REV_AT_EPOCH><BSTAR>.70526073E-3</BSTAR><MEAN_MOTION_DOT>.48E-4</MEAN_MOTION_DOT><MEAN_MOTION_DDOT>0</MEAN_MOTION_DDOT></tleParameters></data></segment></body></omm>
<omm id="CCSDS_OMM_VERS" version="2.0">
<header><CREATION_DATE/><ORIGINATOR/></header><body><segment><metadata><OBJECT_NAME>KUIPER-00111</OBJECT_NAME><OBJECT_ID>2025-171T</OBJECT_ID><CENTER_NAME>EARTH</CENTER_NAME><REF_FRAME>TEME</REF_FRAME><TIME_SYSTEM>UTC</TIME_SYSTEM><MEAN_ELEMENT_THEORY>SGP4</MEAN_ELEMENT_THEORY></metadata><data><meanElements><EPOCH>2025-12-10T15:45:49.686912</EPOCH><MEAN_MOTION>14.79870032</MEAN_MOTION><ECCENTRICITY>.00092321</ECCENTRICITY><INCLINATION>51.8940</INCLINATION><RA_OF_ASC_NODE>206.7723</RA_OF_ASC_NODE><ARG_OF_PERICENTER>176.2438</ARG_OF_PERICENTER><MEAN_ANOMALY>183.8596</MEAN_ANOMALY></meanElements><tleParameters><EPHEMERIS_TYPE>0</EPHEMERIS_TYPE><CLASSIFICATION_TYPE>U</CLASSIFICATION_TYPE><NORAD_CAT_ID>65149</NORAD_CAT_ID><ELEMENT_SET_NO>999</ELEMENT_SET_NO><REV_AT_EPOCH>1949</REV_AT_EPOCH><BSTAR>-.90792852E-3</BSTAR><MEAN_MOTION_DOT>-.7132E-4</MEAN_MOTION_DOT><MEAN_MOTION_DDOT>0</MEAN_MOTION_DDOT></tleParameters></data></segment></body></omm>

</ndm>
