KUIPER-00104            
1 65142U 25171L   25344.66668981 -.00015868  00000+0 -19526-2 0  9996
2 65142  51.8996 190.6727 0003528 226.8240  75.4572 14.82100263  5318
KUIPER-00105            
1 65143U 25171M   25344.59734898  .00004766  00000+0  65293-3 0  9996
2 65143  51.8984 199.6163 0013395 166.1137 194.0196 14.79950945 19594
KUIPER-00106            
1 65144U 25171N   25344.58291541  .00007929  00000+0  71186-3 0  9991
2 65144  51.8912 199.7011 0009656 160.6745 199.4592 14.96492140 19594
KUIPER-00107            
1 65145U 25171P   25344.66668981 -.00007965  00000+0 -53120-3 0  9997
2 65145  51.8864 183.4855 0006969 218.5351 264.9445 15.05307387  5169
KUIPER-00108            
1 65146U 25171Q   25344.29886778 -.00009891  00000+0 -12705-2 0  9996
2 65146  51.9023 195.8746 0008779 173.9707 186.1363 14.79891207 19623
KUIPER-00109            
1 65147U 25171R   25344.66668981 -.00016087  00000+0 -20211-2 0  9998
2 65147  51.8996 189.1951 0012079 186.7231 119.3329 14.81192104  5558
KUIPER-00110            
1 65148U 25171S   25344.35029215  .00004800  00000+0  70526-3 0  9999
2 65148  51.8967 203.1152 0011380 168.9027 191.2187 14.76943317 19512
KUIPER-00111            
1 65149U 25171T   25344.65682508 -.00007132  00000+0 -90793-3 0  9994
2 65149  51.8940 206.7723 0009232 176.2438 183.8596 14.79870032 19492
